{
    "epoch": 57800,
    "orbit_axis": 2.8043,
    "orbit_eccentricity": 0.6672,
    "orbit_inclination": 4.7249,
    "perihelion_argument": 178.805,
    "node_longitude": 304.3265,
    "mean_anomoly": 319.3111,
    "perihelion_distance": 1.1335,
    "aphelion_distance": 1.78,
    "orbital_period": 1.76,
    "min_orbit_intersection_distance": 0.1492,
    "orbital_reference": 598,
    "asteroid_magnitude": 11.16,
    "classification_apohele": false,
    "classification_apollo": false,
    "classification_aten": false
}
